CCSDS_OMM_VERS = 2.0
CREATION_DATE  = 
ORIGINATOR     = 

OBJECT_NAME    = STARLINK-35813
OBJECT_ID      = 2025-254P
CENTER_NAME    = EARTH
REF_FRAME      = TEME
TIME_SYSTEM    = UTC
MEAN_ELEMENT_THEORY = SGP/SGP4

EPOCH          = 2025-12-01T00:03:47.580192
MEAN_MOTION    = 15.74137755
ECCENTRICITY   = .00020691
INCLINATION    = 53.1583
RA_OF_ASC_NODE = 333.1760
ARG_OF_PERICENTER = 122.1455
MEAN_ANOMALY   = 237.9766

EPHEMERIS_TYPE = 0
CLASSIFICATION_TYPE = U
NORAD_CAT_ID   = 66361
ELEMENT_SET_NO = 999
REV_AT_EPOCH   = 383
BSTAR          = .31515812E-3
MEAN_MOTION_DOT = .45677E-3
MEAN_MOTION_DDOT = 0

CCSDS_OMM_VERS = 2.0
CREATION_DATE  = 
ORIGINATOR     = 

OBJECT_NAME    = STARLINK-35822
OBJECT_ID      = 2025-254Q
CENTER_NAME    = EARTH
REF_FRAME      = TEME
TIME_SYSTEM    = UTC
MEAN_ELEMENT_THEORY = SGP/SGP4

EPOCH          = 2025-11-30T22:30:54.171072
MEAN_MOTION    = 15.74171593
ECCENTRICITY   = .0001974
INCLINATION    = 53.1583
RA_OF_ASC_NODE = 333.4842
ARG_OF_PERICENTER = 23.1583
MEAN_ANOMALY   = 336.9526

EPHEMERIS_TYPE = 0
CLASSIFICATION_TYPE = U
NORAD_CAT_ID   = 66362
ELEMENT_SET_NO = 999
REV_AT_EPOCH   = 382
BSTAR          = .11146679E-2
MEAN_MOTION_DOT = .165745E-2
MEAN_MOTION_DDOT = 0

CCSDS_OMM_VERS = 2.0
CREATION_DATE  = 
ORIGINATOR     = 

OBJECT_NAME    = STARLINK-35806
OBJECT_ID      = 2025-254R
CENTER_NAME    = EARTH
REF_FRAME      = TEME
TIME_SYSTEM    = UTC
MEAN_ELEMENT_THEORY = SGP/SGP4

EPOCH          = 2025-11-30T22:31:23.425248
MEAN_MOTION    = 15.74182053
ECCENTRICITY   = .00020501
INCLINATION    = 53.1584
RA_OF_ASC_NODE = 333.4860
ARG_OF_PERICENTER = 19.8111
MEAN_ANOMALY   = 340.2988

EPHEMERIS_TYPE = 0
CLASSIFICATION_TYPE = U
NORAD_CAT_ID   = 66363
ELEMENT_SET_NO = 999
REV_AT_EPOCH   = 382
BSTAR          = .1222148E-2
MEAN_MOTION_DOT = .18223E-2
MEAN_MOTION_DDOT = 0

CCSDS_OMM_VERS = 2.0
CREATION_DATE  = 
ORIGINATOR     = 

OBJECT_NAME    = STARLINK-35797
OBJECT_ID      = 2025-254S
CENTER_NAME    = EARTH
REF_FRAME      = TEME
TIME_SYSTEM    = UTC
MEAN_ELEMENT_THEORY = SGP/SGP4

EPOCH          = 2025-12-01T00:01:50.726784
MEAN_MOTION    = 15.74154440
ECCENTRICITY   = .00015568
INCLINATION    = 53.1581
RA_OF_ASC_NODE = 333.1662
ARG_OF_PERICENTER = 100.6104
MEAN_ANOMALY   = 259.5092

EPHEMERIS_TYPE = 0
CLASSIFICATION_TYPE = U
NORAD_CAT_ID   = 66364
ELEMENT_SET_NO = 999
REV_AT_EPOCH   = 383
BSTAR          = .50276189E-3
MEAN_MOTION_DOT = .73537E-3
MEAN_MOTION_DDOT = 0

CCSDS_OMM_VERS = 2.0
CREATION_DATE  = 
ORIGINATOR     = 

OBJECT_NAME    = STARLINK-35827
OBJECT_ID      = 2025-254T
CENTER_NAME    = EARTH
REF_FRAME      = TEME
TIME_SYSTEM    = UTC
MEAN_ELEMENT_THEORY = SGP/SGP4

EPOCH          = 2025-12-01T00:00:51.911712
MEAN_MOTION    = 15.74232006
ECCENTRICITY   = .00011507
INCLINATION    = 53.1580
RA_OF_ASC_NODE = 333.1622
ARG_OF_PERICENTER = 79.4716
MEAN_ANOMALY   = 280.6434

EPHEMERIS_TYPE = 0
CLASSIFICATION_TYPE = U
NORAD_CAT_ID   = 66365
ELEMENT_SET_NO = 999
REV_AT_EPOCH   = 383
BSTAR          = .15282363E-2
MEAN_MOTION_DOT = .229822E-2
MEAN_MOTION_DDOT = 0

CCSDS_OMM_VERS = 2.0
CREATION_DATE  = 
ORIGINATOR     = 

OBJECT_NAME    = STARLINK-35845
OBJECT_ID      = 2025-254U
CENTER_NAME    = EARTH
REF_FRAME      = TEME
TIME_SYSTEM    = UTC
MEAN_ELEMENT_THEORY = SGP/SGP4

EPOCH          = 2025-12-01T00:01:21.635040
MEAN_MOTION    = 15.74143200
ECCENTRICITY   = .00015955
INCLINATION    = 53.1580
RA_OF_ASC_NODE = 333.1639
ARG_OF_PERICENTER = 135.9149
MEAN_ANOMALY   = 224.1999

EPHEMERIS_TYPE = 0
CLASSIFICATION_TYPE = U
NORAD_CAT_ID   = 66366
ELEMENT_SET_NO = 999
REV_AT_EPOCH   = 383
BSTAR          = .5542524E-3
MEAN_MOTION_DOT = .81167E-3
MEAN_MOTION_DDOT = 0

CCSDS_OMM_VERS = 2.0
CREATION_DATE  = 
ORIGINATOR     = 

OBJECT_NAME    = STARLINK-35846
OBJECT_ID      = 2025-254V
CENTER_NAME    = EARTH
REF_FRAME      = TEME
TIME_SYSTEM    = UTC
MEAN_ELEMENT_THEORY = SGP/SGP4

EPOCH          = 2025-12-01T00:00:23.230368
MEAN_MOTION    = 15.74163946
ECCENTRICITY   = .00010252
INCLINATION    = 53.1580
RA_OF_ASC_NODE = 333.1592
ARG_OF_PERICENTER = 92.8452
MEAN_ANOMALY   = 267.2685

EPHEMERIS_TYPE = 0
CLASSIFICATION_TYPE = U
NORAD_CAT_ID   = 66367
ELEMENT_SET_NO = 999
REV_AT_EPOCH   = 383
BSTAR          = .82737772E-3
MEAN_MOTION_DOT = .12218E-2
MEAN_MOTION_DDOT = 0

CCSDS_OMM_VERS = 2.0
CREATION_DATE  = 
ORIGINATOR     = 

OBJECT_NAME    = STARLINK-34861
OBJECT_ID      = 2025-254W
CENTER_NAME    = EARTH
REF_FRAME      = TEME
TIME_SYSTEM    = UTC
MEAN_ELEMENT_THEORY = SGP/SGP4

EPOCH          = 2025-11-30T22:27:58.824000
MEAN_MOTION    = 15.74201831
ECCENTRICITY   = .0001211
INCLINATION    = 53.1576
RA_OF_ASC_NODE = 333.4685
ARG_OF_PERICENTER = 76.2231
MEAN_ANOMALY   = 283.8923

EPHEMERIS_TYPE = 0
CLASSIFICATION_TYPE = U
NORAD_CAT_ID   = 66368
ELEMENT_SET_NO = 999
REV_AT_EPOCH   = 382
BSTAR          = .13064059E-2
MEAN_MOTION_DOT = .195304E-2
MEAN_MOTION_DDOT = 0

CCSDS_OMM_VERS = 2.0
CREATION_DATE  = 
ORIGINATOR     = 

OBJECT_NAME    = STARLINK-35795
OBJECT_ID      = 2025-254X
CENTER_NAME    = EARTH
REF_FRAME      = TEME
TIME_SYSTEM    = UTC
MEAN_ELEMENT_THEORY = SGP/SGP4

EPOCH          = 2025-11-30T23:59:53.513088
MEAN_MOTION    = 15.74196887
ECCENTRICITY   = .00013349
INCLINATION    = 53.1577
RA_OF_ASC_NODE = 333.1558
ARG_OF_PERICENTER = 77.6176
MEAN_ANOMALY   = 282.4993

EPHEMERIS_TYPE = 0
CLASSIFICATION_TYPE = U
NORAD_CAT_ID   = 66369
ELEMENT_SET_NO = 999
REV_AT_EPOCH   = 383
BSTAR          = .13202757E-2
MEAN_MOTION_DOT = .197392E-2
MEAN_MOTION_DDOT = 0

CCSDS_OMM_VERS = 2.0
CREATION_DATE  = 
ORIGINATOR     = 

OBJECT_NAME    = STARLINK-35824
OBJECT_ID      = 2025-254Y
CENTER_NAME    = EARTH
REF_FRAME      = TEME
TIME_SYSTEM    = UTC
MEAN_ELEMENT_THEORY = SGP/SGP4

EPOCH          = 2025-11-30T22:27:29.661408
MEAN_MOTION    = 15.74189449
ECCENTRICITY   = .00011737
INCLINATION    = 53.1578
RA_OF_ASC_NODE = 333.4667
ARG_OF_PERICENTER = 60.3713
MEAN_ANOMALY   = 299.7424

EPHEMERIS_TYPE = 0
CLASSIFICATION_TYPE = U
NORAD_CAT_ID   = 66370
ELEMENT_SET_NO = 999
REV_AT_EPOCH   = 382
BSTAR          = .11822508E-2
MEAN_MOTION_DOT = .176184E-2
MEAN_MOTION_DDOT = 0

CCSDS_OMM_VERS = 2.0
CREATION_DATE  = 
ORIGINATOR     = 

OBJECT_NAME    = STARLINK-35804
OBJECT_ID      = 2025-254Z
CENTER_NAME    = EARTH
REF_FRAME      = TEME
TIME_SYSTEM    = UTC
MEAN_ELEMENT_THEORY = SGP/SGP4

EPOCH          = 2025-11-30T22:26:31.200576
MEAN_MOTION    = 15.74198381
ECCENTRICITY   = .00011041
INCLINATION    = 53.1575
RA_OF_ASC_NODE = 333.4617
ARG_OF_PERICENTER = 84.8974
MEAN_ANOMALY   = 275.2172

EPHEMERIS_TYPE = 0
CLASSIFICATION_TYPE = U
NORAD_CAT_ID   = 66371
ELEMENT_SET_NO = 999
REV_AT_EPOCH   = 382
BSTAR          = .12277511E-2
MEAN_MOTION_DOT = .183214E-2
MEAN_MOTION_DDOT = 0

CCSDS_OMM_VERS = 2.0
CREATION_DATE  = 
ORIGINATOR     = 

OBJECT_NAME    = STARLINK-35821
OBJECT_ID      = 2025-254AA
CENTER_NAME    = EARTH
REF_FRAME      = TEME
TIME_SYSTEM    = UTC
MEAN_ELEMENT_THEORY = SGP/SGP4

EPOCH          = 2025-11-30T22:27:00.508320
MEAN_MOTION    = 15.74196732
ECCENTRICITY   = .00012683
INCLINATION    = 53.1577
RA_OF_ASC_NODE = 333.4650
ARG_OF_PERICENTER = 64.2669
MEAN_ANOMALY   = 295.8482

EPHEMERIS_TYPE = 0
CLASSIFICATION_TYPE = U
NORAD_CAT_ID   = 66372
ELEMENT_SET_NO = 999
REV_AT_EPOCH   = 382
BSTAR          = .13015936E-2
MEAN_MOTION_DOT = .194521E-2
MEAN_MOTION_DDOT = 0

