STARLINK-35813          
1 66361U 25254P   25335.00263403  .00045677  00000+0  31516-3 0  9993
2 66361  53.1583 333.1760 0002069 122.1455 237.9766 15.74137755  3838
STARLINK-35822          
1 66362U 25254Q   25334.93812698  .00165745  00000+0  11147-2 0  9997
2 66362  53.1583 333.4842 0001974  23.1583 336.9526 15.74171593  3820
STARLINK-35806          
1 66363U 25254R   25334.93846557  .00182230  00000+0  12221-2 0  9991
2 66363  53.1584 333.4860 0002050  19.8111 340.2988 15.74182053  3820
STARLINK-35797          
1 66364U 25254S   25335.00128156  .00073537  00000+0  50276-3 0  9991
2 66364  53.1581 333.1662 0001556 100.6104 259.5092 15.74154440  3834
STARLINK-35827          
1 66365U 25254T   25335.00060083  .00229822  00000+0  15282-2 0  9993
2 66365  53.1580 333.1622 0001150  79.4716 280.6434 15.74232006  3832
STARLINK-35845          
1 66366U 25254U   25335.00094485  .00081167  00000+0  55425-3 0  9999
2 66366  53.1580 333.1639 0001595 135.9149 224.1999 15.74143200  3838
STARLINK-35846          
1 66367U 25254V   25335.00026887  .00122180  00000+0  82738-3 0  9999
2 66367  53.1580 333.1592 0001025  92.8452 267.2685 15.74163946  3832
STARLINK-34861          
1 66368U 25254W   25334.93609750  .00195304  00000+0  13064-2 0  9990
2 66368  53.1576 333.4685 0001211  76.2231 283.8923 15.74201831  3826
STARLINK-35795          
1 66369U 25254X   25334.99992492  .00197392  00000+0  13203-2 0  9999
2 66369  53.1577 333.1558 0001334  77.6176 282.4993 15.74196887  3830
STARLINK-35824          
1 66370U 25254Y   25334.93575997  .00176184  00000+0  11823-2 0  9994
2 66370  53.1578 333.4667 0001173  60.3713 299.7424 15.74189449  3829
STARLINK-35804          
1 66371U 25254Z   25334.93508334  .00183214  00000+0  12278-2 0  9993
2 66371  53.1575 333.4617 0001104  84.8974 275.2172 15.74198381  3820
STARLINK-35821          
1 66372U 25254AA  25334.93542255  .00194521  00000+0  13016-2 0  9998
2 66372  53.1577 333.4650 0001268  64.2669 295.8482 15.74196732  3824
